[{"OBJECT_NAME":"ONEWEB-0659","OBJECT_ID":"2022-166AN","EPOCH":"2026-01-13T05:12:19.376352","MEAN_MOTION":13.21825456,"ECCENTRICITY":0.00015493,"INCLINATION":87.9221,"RA_OF_ASC_NODE":274.9069,"ARG_OF_PERICENTER":77.8086,"MEAN_ANOMALY":282.3221,"EPHEMERIS_TYPE":0,"CLASSIFICATION_TYPE":"U","NORAD_CAT_ID":54678,"ELEMENT_SET_NO":999,"REV_AT_EPOCH":15105,"BSTAR":0.00029692136,"MEAN_MOTION_DOT":1.36e-6,"MEAN_MOTION_DDOT":0},{"OBJECT_NAME":"ONEWEB-0685","OBJECT_ID":"2022-166AP","EPOCH":"2026-01-13T05:12:40.152096","MEAN_MOTION":13.21837714,"ECCENTRICITY":0.00019198,"INCLINATION":87.922,"RA_OF_ASC_NODE":274.9028,"ARG_OF_PERICENTER":80.5018,"MEAN_ANOMALY":279.6333,"EPHEMERIS_TYPE":0,"CLASSIFICATION_TYPE":"U","NORAD_CAT_ID":54679,"ELEMENT_SET_NO":999,"REV_AT_EPOCH":15094,"BSTAR":0.00023127072,"MEAN_MOTION_DOT":1.09e-6,"MEAN_MOTION_DDOT":0},{"OBJECT_NAME":"ONEWEB-0712","OBJECT_ID":"2022-166AQ","EPOCH":"2026-01-13T04:16:37.676640","MEAN_MOTION":13.16594389,"ECCENTRICITY":0.00016271,"INCLINATION":87.9036,"RA_OF_ASC_NODE":259.6351,"ARG_OF_PERICENTER":57.4264,"MEAN_ANOMALY":302.7024,"EPHEMERIS_TYPE":0,"CLASSIFICATION_TYPE":"U","NORAD_CAT_ID":54680,"ELEMENT_SET_NO":999,"REV_AT_EPOCH":15166,"BSTAR":0.00014508038,"MEAN_MOTION_DOT":6.8e-7,"MEAN_MOTION_DDOT":0},{"OBJECT_NAME":"ONEWEB-0714","OBJECT_ID":"2022-166AR","EPOCH":"2026-01-13T03:32:48.179904","MEAN_MOTION":13.21827945,"ECCENTRICITY":0.00017537,"INCLINATION":87.9221,"RA_OF_ASC_NODE":274.9106,"ARG_OF_PERICENTER":70.4187,"MEAN_ANOMALY":289.7136,"EPHEMERIS_TYPE":0,"CLASSIFICATION_TYPE":"U","NORAD_CAT_ID":54681,"ELEMENT_SET_NO":999,"REV_AT_EPOCH":15105,"BSTAR":0.00016877952,"MEAN_MOTION_DOT":8.3e-7,"MEAN_MOTION_DDOT":0},{"OBJECT_NAME":"ONEWEB-0532","OBJECT_ID":"2023-004A","EPOCH":"2026-01-13T02:57:55.990944","MEAN_MOTION":13.17650447,"ECCENTRICITY":0.00020836,"INCLINATION":87.9098,"RA_OF_ASC_NODE":36.6819,"ARG_OF_PERICENTER":102.4744,"MEAN_ANOMALY":257.6621,"EPHEMERIS_TYPE":0,"CLASSIFICATION_TYPE":"U","NORAD_CAT_ID":55140,"ELEMENT_SET_NO":999,"REV_AT_EPOCH":14716,"BSTAR":-8.463576e-6,"MEAN_MOTION_DOT":1.0e-7,"MEAN_MOTION_DDOT":0},{"OBJECT_NAME":"ONEWEB-0533","OBJECT_ID":"2023-004B","EPOCH":"2026-01-13T07:33:16.824384","MEAN_MOTION":13.12441676,"ECCENTRICITY":0.00019166,"INCLINATION":87.893,"RA_OF_ASC_NODE":21.4176,"ARG_OF_PERICENTER":86.5235,"MEAN_ANOMALY":273.6113,"EPHEMERIS_TYPE":0,"CLASSIFICATION_TYPE":"U","NORAD_CAT_ID":55141,"ELEMENT_SET_NO":999,"REV_AT_EPOCH":14774,"BSTAR":0.0011263091,"MEAN_MOTION_DOT":4.18e-6,"MEAN_MOTION_DDOT":0},{"OBJECT_NAME":"ONEWEB-0541","OBJECT_ID":"2023-004C","EPOCH":"2026-01-13T01:42:11.328480","MEAN_MOTION":13.11419032,"ECCENTRICITY":0.00017408,"INCLINATION":87.8834,"RA_OF_ASC_NODE":51.9296,"ARG_OF_PERICENTER":101.0067,"MEAN_ANOMALY":259.1256,"EPHEMERIS_TYPE":0,"CLASSIFICATION_TYPE":"U","NORAD_CAT_ID":55142,"ELEMENT_SET_NO":999,"REV_AT_EPOCH":14561,"BSTAR":2.011301e-5,"MEAN_MOTION_DOT":2.0e-7,"MEAN_MOTION_DDOT":0},{"OBJECT_NAME":"ONEWEB-0543","OBJECT_ID":"2023-004D","EPOCH":"2026-01-13T05:22:34.573728","MEAN_MOTION":13.18684626,"ECCENTRICITY":0.00016888,"INCLINATION":87.9163,"RA_OF_ASC_NODE":6.2566,"ARG_OF_PERICENTER":77.4762,"MEAN_ANOMALY":282.6559,"EPHEMERIS_TYPE":0,"CLASSIFICATION_TYPE":"U","NORAD_CAT_ID":55143,"ELEMENT_SET_NO":999,"REV_AT_EPOCH":14927,"BSTAR":5.5724378e-5,"MEAN_MOTION_DOT":3.5e-7,"MEAN_MOTION_DDOT":0},{"OBJECT_NAME":"ONEWEB-0544","OBJECT_ID":"2023-004E","EPOCH":"2026-01-13T05:13:04.996416","MEAN_MOTION":13.18687581,"ECCENTRICITY":0.00015449,"INCLINATION":87.917,"RA_OF_ASC_NODE":6.2503,"ARG_OF_PERICENTER":87.9642,"MEAN_ANOMALY":272.1667,"EPHEMERIS_TYPE":0,"CLASSIFICATION_TYPE":"U","NORAD_CAT_ID":55144,"ELEMENT_SET_NO":999,"REV_AT_EPOCH":14927,"BSTAR":5.1123593e-5,"MEAN_MOTION_DOT":3.3e-7,"MEAN_MOTION_DDOT":0},{"OBJECT_NAME":"ONEWEB-0560","OBJECT_ID":"2023-004F","EPOCH":"2026-01-13T05:03:34.771104","MEAN_MOTION":13.18685752,"ECCENTRICITY":0.00015488,"INCLINATION":87.9174,"RA_OF_ASC_NODE":6.2399,"ARG_OF_PERICENTER":85.2926,"MEAN_ANOMALY":274.8383,"EPHEMERIS_TYPE":0,"CLASSIFICATION_TYPE":"U","NORAD_CAT_ID":55145,"ELEMENT_SET_NO":999,"REV_AT_EPOCH":14928,"BSTAR":-2.873402e-5,"MEAN_MOTION_DOT":2.0e-8,"MEAN_MOTION_DDOT":0},{"OBJECT_NAME":"ONEWEB-0565","OBJECT_ID":"2023-004G","EPOCH":"2026-01-12T23:26:17.335392","MEAN_MOTION":13.18685366,"ECCENTRICITY":0.000149,"INCLINATION":87.9165,"RA_OF_ASC_NODE":6.3294,"ARG_OF_PERICENTER":102.8529,"MEAN_ANOMALY":257.277,"EPHEMERIS_TYPE":0,"CLASSIFICATION_TYPE":"U","NORAD_CAT_ID":55146,"ELEMENT_SET_NO":999,"REV_AT_EPOCH":14924,"BSTAR":0.00020131,"MEAN_MOTION_DOT":9.2e-7,"MEAN_MOTION_DDOT":0},{"OBJECT_NAME":"ONEWEB-0567","OBJECT_ID":"2023-004H","EPOCH":"2026-01-12T23:16:47.114400","MEAN_MOTION":13.18685276,"ECCENTRICITY":0.0001413,"INCLINATION":87.9173,"RA_OF_ASC_NODE":6.3002,"ARG_OF_PERICENTER":94.806,"MEAN_ANOMALY":265.3234,"EPHEMERIS_TYPE":0,"CLASSIFICATION_TYPE":"U","NORAD_CAT_ID":55147,"ELEMENT_SET_NO":999,"REV_AT_EPOCH":14924,"BSTAR":2.818e-5,"MEAN_MOTION_DOT":2.4e-7,"MEAN_MOTION_DDOT":0},{"OBJECT_NAME":"ONEWEB-0569","OBJECT_ID":"2023-004J","EPOCH":"2026-01-13T05:09:58.190112","MEAN_MOTION":13.13470377,"ECCENTRICITY":7.952e-5,"INCLINATION":87.9007,"RA_OF_ASC_NODE":351.0071,"ARG_OF_PERICENTER":76.2048,"MEAN_ANOMALY":283.917,"EPHEMERIS_TYPE":0,"CLASSIFICATION_TYPE":"U","NORAD_CAT_ID":55148,"ELEMENT_SET_NO":999,"REV_AT_EPOCH":14983,"BSTAR":0.00049161073,"MEAN_MOTION_DOT":1.92e-6,"MEAN_MOTION_DDOT":0},{"OBJECT_NAME":"ONEWEB-0570","OBJECT_ID":"2023-004K","EPOCH":"2026-01-13T06:19:35.091840","MEAN_MOTION":13.1868674,"ECCENTRICITY":0.00019785,"INCLINATION":87.9173,"RA_OF_ASC_NODE":6.2412,"ARG_OF_PERICENTER":101.525,"MEAN_ANOMALY":258.6104,"EPHEMERIS_TYPE":0,"CLASSIFICATION_TYPE":"U","NORAD_CAT_ID":55149,"ELEMENT_SET_NO":999,"REV_AT_EPOCH":14927,"BSTAR":-0.00010828614,"MEAN_MOTION_DOT":-3.0e-7,"MEAN_MOTION_DDOT":0},{"OBJECT_NAME":"ONEWEB-0571","OBJECT_ID":"2023-004L","EPOCH":"2026-01-13T06:10:05.801376","MEAN_MOTION":13.18686129,"ECCENTRICITY":9.84e-5,"INCLINATION":87.9172,"RA_OF_ASC_NODE":6.2415,"ARG_OF_PERICENTER":130.9019,"MEAN_ANOMALY":229.2198,"EPHEMERIS_TYPE":0,"CLASSIFICATION_TYPE":"U","NORAD_CAT_ID":55150,"ELEMENT_SET_NO":999,"REV_AT_EPOCH":14928,"BSTAR":-3.0396615e-5,"MEAN_MOTION_DOT":1.0e-8,"MEAN_MOTION_DDOT":0},{"OBJECT_NAME":"ONEWEB-0572","OBJECT_ID":"2023-004M","EPOCH":"2026-01-13T07:20:21.945984","MEAN_MOTION":13.1765068,"ECCENTRICITY":0.00017145,"INCLINATION":87.9089,"RA_OF_ASC_NODE":36.6534,"ARG_OF_PERICENTER":99.3157,"MEAN_ANOMALY":260.8168,"EPHEMERIS_TYPE":0,"CLASSIFICATION_TYPE":"U","NORAD_CAT_ID":55151,"ELEMENT_SET_NO":999,"REV_AT_EPOCH":14708,"BSTAR":-0.00015431857,"MEAN_MOTION_DOT":-4.7e-7,"MEAN_MOTION_DDOT":0},{"OBJECT_NAME":"ONEWEB-0573","OBJECT_ID":"2023-004N","EPOCH":"2026-01-13T06:00:34.903008","MEAN_MOTION":13.18686731,"ECCENTRICITY":0.00016569,"INCLINATION":87.917,"RA_OF_ASC_NODE":6.2458,"ARG_OF_PERICENTER":115.229,"MEAN_ANOMALY":244.9014,"EPHEMERIS_TYPE":0,"CLASSIFICATION_TYPE":"U","NORAD_CAT_ID":55152,"ELEMENT_SET_NO":999,"REV_AT_EPOCH":14927,"BSTAR":0.0001027809,"MEAN_MOTION_DOT":5.3e-7,"MEAN_MOTION_DDOT":0}]
