ONEWEB-0659             
1 54678U 22166AN  26013.21689093  .00000136  00000+0  29692-3 0  9997
2 54678  87.9221 274.9069 0001549  77.8086 282.3221 13.21825456151052
ONEWEB-0685             
1 54679U 22166AP  26013.21713139  .00000109  00000+0  23127-3 0  9994
2 54679  87.9220 274.9028 0001919  80.5018 279.6333 13.21837714150944
ONEWEB-0712             
1 54680U 22166AQ  26013.17821385  .00000068  00000+0  14508-3 0  9991
2 54680  87.9036 259.6351 0001627  57.4264 302.7024 13.16594389151669
ONEWEB-0714             
1 54681U 22166AR  26013.14777986  .00000083  00000+0  16878-3 0  9995
2 54681  87.9221 274.9106 0001753  70.4187 289.7136 13.21827945151057
ONEWEB-0532             
1 55140U 23004A   26013.12356471  .00000010  00000+0 -84636-5 0  9998
2 55140  87.9098  36.6819 0002083 102.4744 257.6621 13.17650447147162
ONEWEB-0533             
1 55141U 23004B   26013.31477806  .00000418  00000+0  11263-2 0  9990
2 55141  87.8930  21.4176 0001916  86.5235 273.6113 13.12441676147741
ONEWEB-0541             
1 55142U 23004C   26013.07096445  .00000020  00000+0  20113-4 0  9995
2 55142  87.8834  51.9296 0001740 101.0067 259.1256 13.11419032145618
ONEWEB-0543             
1 55143U 23004D   26013.22401127  .00000035  00000+0  55724-4 0  9992
2 55143  87.9163   6.2566 0001688  77.4762 282.6559 13.18684626149270
ONEWEB-0544             
1 55144U 23004E   26013.21741894  .00000033  00000+0  51124-4 0  9998
2 55144  87.9170   6.2503 0001544  87.9642 272.1667 13.18687581149271
ONEWEB-0560             
1 55145U 23004F   26013.21081911  .00000002  00000+0 -28734-4 0  9994
2 55145  87.9174   6.2399 0001548  85.2926 274.8383 13.18685752149282
ONEWEB-0565             
1 55146U 23004G   26012.97658953  .00000092  00000+0  20131-3 0  9993
2 55146  87.9165   6.3294 0001490 102.8529 257.2770 13.18685366149241
ONEWEB-0567             
1 55147U 23004H   26012.96998975  .00000024  00000+0  28180-4 0  9992
2 55147  87.9173   6.3002 0001413  94.8060 265.3234 13.18685276149248
ONEWEB-0569             
1 55148U 23004J   26013.21525683  .00000192  00000+0  49161-3 0  9991
2 55148  87.9007 351.0071 0000795  76.2048 283.9170 13.13470377149832
ONEWEB-0570             
1 55149U 23004K   26013.26360060 -.00000030  00000+0 -10829-3 0  9995
2 55149  87.9173   6.2412 0001978 101.5250 258.6104 13.18686740149278
ONEWEB-0571             
1 55150U 23004L   26013.25701159  .00000001  00000+0 -30397-4 0  9994
2 55150  87.9172   6.2415 0000984 130.9019 229.2198 13.18686129149286
ONEWEB-0572             
1 55151U 23004M   26013.30580956 -.00000047  00000+0 -15432-3 0  9994
2 55151  87.9089  36.6534 0001714  99.3157 260.8168 13.17650680147082
ONEWEB-0573             
1 55152U 23004N   26013.25040397  .00000053  00000+0  10278-3 0  9997
2 55152  87.9170   6.2458 0001656 115.2290 244.9014 13.18686731149276
